[{"OBJECT_NAME":"STARLINK-11328 [DTC]","OBJECT_ID":"2024-204G","EPOCH":"2026-03-09T22:38:03.469344","MEAN_MOTION":15.69695311,"ECCENTRICITY":0.00011139,"INCLINATION":53.1596,"RA_OF_ASC_NODE":355.0685,"ARG_OF_PERICENTER":108.791,"MEAN_ANOMALY":251.3229,"EPHEMERIS_TYPE":0,"CLASSIFICATION_TYPE":"U","NORAD_CAT_ID":61880,"ELEMENT_SET_NO":999,"REV_AT_EPOCH":7695,"BSTAR":1.4262548e-5,"MEAN_MOTION_DOT":1.139e-5,"MEAN_MOTION_DDOT":0},{"OBJECT_NAME":"OBJECT AX","OBJECT_ID":"2023-091AX","EPOCH":"2026-03-09T23:12:55.379232","MEAN_MOTION":15.67135623,"ECCENTRICITY":0.0002847,"INCLINATION":97.5095,"RA_OF_ASC_NODE":145.9713,"ARG_OF_PERICENTER":39.325,"MEAN_ANOMALY":320.8217,"EPHEMERIS_TYPE":0,"CLASSIFICATION_TYPE":"U","NORAD_CAT_ID":57323,"ELEMENT_SET_NO":999,"REV_AT_EPOCH":14798,"BSTAR":0.0015354592,"MEAN_MOTION_DOT":0.00166875,"MEAN_MOTION_DDOT":0}]
